CZ-2C R/B               
1 52794U 22058K   25326.01861075  .00030119  00000+0  56531-3 0  9996
2 52794  50.1881 149.1061 0047822 112.7860 247.8170 15.47056204193424
CZ-2C R/B               
1 54039U 22132E   25325.99956056  .00028161  00000+0  44459-3 0  9993
2 54039  97.2945 321.8301 0023643 125.0244 235.3232 15.53147803173618
GSLV R/B                
1 54149U 22138AN  25325.71915934  .00002679  00000+0  23553-3 0  9999
2 54149  87.3847 202.5104 0021491 177.0642 183.0720 14.95973953167785
XRISM                   
1 57800U 23137A   25326.01455909  .00006780  00000+0  40059-3 0  9998
2 57800  31.0028 259.3278 0007657  34.1340 325.9789 15.10059073121493
ACS3                    
1 59588U 24077B   25325.51068514  .00027085  00000+0  23825-1 0  9994
2 59588  97.2974 285.8483 0069329  17.3855 342.9657 13.84103631 79205
